sat21820
1 21820U 91086B   20046.75380445  .00000050  00000-0  37090-5 0  9994
2 21820  82.5570 264.1045 1576022  40.9404 329.9824 11.93479236222916
